[{"OBJECT_NAME":"STARLINK-31829","OBJECT_ID":"2024-091T","EPOCH":"2026-03-09T07:06:29.071584","MEAN_MOTION":15.30159829,"ECCENTRICITY":0.00014123,"INCLINATION":53.1626,"RA_OF_ASC_NODE":28.7501,"ARG_OF_PERICENTER":111.3087,"MEAN_ANOMALY":248.8065,"EPHEMERIS_TYPE":0,"CLASSIFICATION_TYPE":"U","NORAD_CAT_ID":59770,"ELEMENT_SET_NO":999,"REV_AT_EPOCH":10294,"BSTAR":-0.0001478243,"MEAN_MOTION_DOT":-4.729e-5,"MEAN_MOTION_DDOT":0},{"OBJECT_NAME":"TRANSPORTER-1 OBJECT Z","OBJECT_ID":"2021-006Z","EPOCH":"2026-03-09T22:55:57.522432","MEAN_MOTION":15.30965056,"ECCENTRICITY":0.00100878,"INCLINATION":97.2377,"RA_OF_ASC_NODE":113.4736,"ARG_OF_PERICENTER":179.6869,"MEAN_ANOMALY":180.438,"EPHEMERIS_TYPE":0,"CLASSIFICATION_TYPE":"U","NORAD_CAT_ID":47436,"ELEMENT_SET_NO":999,"REV_AT_EPOCH":28420,"BSTAR":0.00024088983,"MEAN_MOTION_DOT":7.143e-5,"MEAN_MOTION_DDOT":0}]
